,H,e,a,q,i,om,w,ma,ad,n,per,moid,albedo
674797,19.2,0.2713,2.616,1.906,6.14,234.87,202.82,199.19,3.33,0.2329,1550.0,0.9229999999999999,0.13200095847308177
556216,17.31,0.156,2.6010000000000004,2.1959999999999997,11.93,314.04,83.86,212.75,3.01,0.2349,1530.0,1.24,0.13101317011043034
451520,16.91,0.0676,2.526,2.355,11.69,256.74,190.55,154.42,2.7,0.2455,1470.0,1.37,0.14217486366962823
1068651,17.0,0.0347,2.9730000000000003,2.87,11.61,78.71,188.44,268.3,3.08,0.1923,1870.0,1.86,0.1463273660229325
836245,17.5,0.1719,2.764,2.289,9.63,18.92,12.4,277.56,3.24,0.2145,1680.0,1.3,0.14439636436394965
39998,15.56,0.1334,2.434,2.109,6.15,179.49,118.87,22.35,2.76,0.2595,1390.0,1.1,0.14612086830084475
845003,16.1,0.0858,2.536,2.319,17.41,129.23,335.77,41.42,2.75,0.244,1480.0,1.34,0.1345838063759559
1074213,16.59,0.1897,3.1489999999999996,2.552,19.14,105.93,354.65,182.73,3.75,0.1764,2040.0,1.57,0.14534869527108907
725232,18.6,0.0883,1.8869999999999998,1.72,19.99,205.38,318.67,17.15,2.05,0.3803,947.0,0.7440000000000001,0.13881830441304488
673575,18.5,0.1781,2.294,1.886,4.39,307.06,126.13,95.23,2.7,0.2836,1270.0,0.905,0.14089234174358353
897664,17.3,0.1577,3.214,2.707,2.77,214.49,195.74,93.62,3.72,0.1711,2100.0,1.72,0.14440471113821027
553170,18.01,0.0556,2.7560000000000002,2.603,4.97,157.38,274.15,206.72,2.91,0.2154,1670.0,1.62,0.14262709015945715
80603,16.14,0.1075,2.306,2.0580000000000003,2.54,277.98,133.94,133.3,2.55,0.2814,1280.0,1.07,0.13332068910287906
450440,17.34,0.1249,2.9330000000000003,2.5660000000000003,0.71,290.18,99.72,102.99,3.3,0.1963,1830.0,1.57,0.1348611765277192
128819,16.7,0.1707,2.677,2.22,6.65,227.73,6.5,84.94,3.13,0.225,1600.0,1.21,0.13111009995387995
1073257,18.23,0.3185,2.713,1.849,10.87,90.6,227.82,286.4,3.58,0.2205,1630.0,0.856,0.13858101317785818
932052,18.0,0.113,2.565,2.275,4.71,167.75,225.46,128.82,2.85,0.24,1500.0,1.28,0.13543410277650872
125878,16.32,0.1104,2.557,2.275,4.97,124.44,297.38,7.06,2.84,0.24100000000000002,1490.0,1.29,0.10439172254398828
415403,15.93,0.1324,3.139,2.7230000000000003,12.84,259.95,320.2,269.39,3.55,0.1772,2030.0,1.73,0.12348030884134686
564600,16.5,0.1147,2.8930000000000002,2.5610000000000004,15.8,109.15,64.81,61.98,3.23,0.2003,1800.0,1.61,0.13116076323217826
1049688,18.95,0.2783,2.6010000000000004,1.8769999999999998,13.33,190.79,147.88,38.15,3.32,0.235,1530.0,0.884,0.1292931889884304
843276,17.1,0.2038,3.179,2.531,9.19,154.35,262.12,194.76,3.83,0.1739,2070.0,1.56,0.14241238445858978
898429,19.42,0.2028,2.36,1.881,2.52,88.64,275.17,38.83,2.84,0.2719,1320.0,0.882,0.1331979344952889
400908,16.47,0.1597,2.7769999999999997,2.334,14.56,21.29,26.4,132.2,3.22,0.2129,1690.0,1.35,0.11387029166820228
850043,16.7,0.081,3.182,2.924,17.31,140.77,97.35,74.33,3.44,0.1736,2070.0,1.98,0.1497679270924784
705158,16.68,0.0847,2.7060000000000004,2.476,13.01,318.72,313.27,61.99,2.93,0.2215,1630.0,1.48,0.12936442001475976
362351,17.99,0.3199,2.314,1.574,4.46,89.67,229.83,106.64,3.05,0.28,1290.0,0.5660000000000001,0.15277496402562546
541877,17.4,0.1702,2.594,2.1519999999999997,13.46,110.73,300.98,206.27,3.04,0.23600000000000002,1530.0,1.2,0.13035328306971838
961394,16.6,0.073,3.154,2.924,18.22,124.56,64.44,295.68,3.38,0.1759,2050.0,1.98,0.1499911349435022
1040341,19.0,0.1808,2.301,1.885,1.01,171.11,120.77,126.7,2.72,0.2823,1280.0,0.87,0.14063352052461425
955972,16.5,0.1058,3.0980000000000003,2.77,9.71,58.53,310.4,71.6,3.43,0.1808,1990.0,1.78,0.149918384999468
405978,17.5,0.2236,2.5810000000000004,2.004,5.42,94.33,249.56,265.52,3.16,0.2377,1510.0,1.0,0.12378181566866323
1008267,18.3,0.197,2.209,1.774,7.08,11.2,276.19,282.99,2.64,0.3002,1200.0,0.7759999999999999,0.13411889590567
802303,19.1,0.1547,2.311,1.953,1.97,99.44,327.82,191.16,2.67,0.2806,1280.0,0.968,0.13489098520530876
689692,17.9,0.1822,2.595,2.122,3.4,294.23,143.05,113.57,3.07,0.2358,1530.0,1.14,0.13950926354468152
832482,17.7,0.1814,2.332,1.909,12.31,277.88,16.27,197.48,2.75,0.2768,1300.0,0.8959999999999999,0.12517017624301327
12334,14.01,0.0708,2.313,2.15,5.75,173.84,43.76,310.71,2.48,0.2801,1290.0,1.15,0.14168558945028303
410630,16.74,0.1741,3.093,2.5540000000000003,10.2,191.41,163.85,166.19,3.63,0.1812,1990.0,1.55,0.1456041242129006
950814,16.48,0.0783,3.1460000000000004,2.8989999999999996,9.85,42.08,142.21,257.15,3.39,0.1766,2040.0,1.91,0.12713263292296534
702731,18.0,0.1909,2.3930000000000002,1.936,3.95,293.7,291.12,238.75,2.85,0.2663,1350.0,0.932,0.15180488753100596
137119,18.17,0.5502,1.899,0.8540000000000001,8.99,339.6,221.83,256.48,2.94,0.3767,956.0,0.0244,0.15617211999910693
761823,17.3,0.1159,2.544,2.249,12.58,234.36,56.75,34.41,2.84,0.2429,1480.0,1.26,0.14434723909750646
1149355,17.9,0.2033,2.5869999999999997,2.061,4.24,247.51,22.24,73.2,3.11,0.2368,1520.0,1.05,0.13642115911648753
796532,17.6,0.247,2.9819999999999998,2.245,4.05,146.51,158.39,280.87,3.72,0.1914,1880.0,1.23,0.12373722843251023
218405,16.36,0.1463,2.9760000000000004,2.541,7.97,168.94,167.74,145.65,3.41,0.1919,1880.0,1.53,0.14644534255570407
440278,16.11,0.1913,3.1319999999999997,2.532,8.83,291.44,60.08,47.47,3.73,0.1779,2020.0,1.54,0.1258910244253907
897219,17.5,0.0094,2.55,2.526,7.07,280.38,232.39,177.78,2.57,0.242,1490.0,1.54,0.161188596589971
320365,17.18,0.2146,2.38,1.869,8.47,113.04,220.89,352.97,2.89,0.2685,1340.0,0.868,0.14049978779350525
462140,16.43,0.016,3.093,3.043,8.86,2.69,103.77,119.75,3.14,0.1812,1990.0,2.07,0.15711028817217934
811431,17.9,0.2601,2.622,1.94,17.01,71.75,325.71,87.64,3.3,0.2322,1550.0,0.971,0.15562757558370638
577316,16.91,0.1187,3.011,2.654,11.1,64.39,35.22,282.38,3.37,0.1887,1910.0,1.68,0.15810285254412473
1101332,19.5,0.1462,2.279,1.946,7.14,91.2,251.44,260.87,2.61,0.2864,1260.0,0.9520000000000001,0.1256762848016278
791718,16.3,0.1203,3.14,2.763,12.54,359.23,217.15,229.43,3.52,0.1771,2030.0,1.77,0.12816761916971461
655879,17.12,0.1391,2.772,2.386,7.59,259.23,291.07,57.54,3.16,0.2136,1690.0,1.4,0.12649340712797685
299016,17.65,0.1724,2.358,1.952,1.42,170.02,241.21,272.62,2.76,0.2722,1320.0,0.963,0.14549406071736296
676778,16.61,0.086,2.593,2.37,23.17,97.39,345.11,218.16,2.82,0.23600000000000002,1530.0,1.39,0.13313262373704607
1023664,18.5,0.1444,2.678,2.291,5.57,142.97,306.44,75.59,3.06,0.225,1600.0,1.31,0.12555303699066458
1087530,19.1,0.2058,2.342,1.86,3.04,130.03,161.38,228.43,2.82,0.2749,1310.0,0.846,0.13244218729357132
799265,16.7,0.2987,3.013,2.113,14.18,338.95,289.93,336.09,3.91,0.1885,1910.0,1.15,0.1203391478492053
275429,16.42,0.0626,2.986,2.8,7.15,358.0,61.78,127.26,3.17,0.191,1890.0,1.82,0.13970558647423081
356591,16.08,0.1586,3.1439999999999997,2.645,6.11,15.56,16.0,304.31,3.64,0.1768,2040.0,1.65,0.14420286116478465
351862,16.49,0.193,3.003,2.424,8.71,247.87,168.86,302.7,3.58,0.1894,1900.0,1.44,0.1408707319509084
552699,16.83,0.0926,3.112,2.824,12.33,86.49,269.07,298.35,3.4,0.1795,2010.0,1.85,0.14315713796614796
277017,16.38,0.102,3.049,2.738,2.93,79.8,29.33,83.43,3.36,0.1851,1950.0,1.76,0.1474991666190768
208637,16.91,0.1844,2.364,1.9280000000000002,2.2,311.78,6.09,16.91,2.8,0.2712,1330.0,0.9159999999999999,0.1275990855819204
299854,16.86,0.058,2.859,2.694,1.59,354.43,321.73,115.76,3.03,0.2038,1770.0,1.68,0.1444405433100219
302833,17.31,0.0453,2.214,2.114,5.23,105.14,26.65,294.02,2.31,0.2992,1200.0,1.13,0.1448665620689317
776777,17.3,0.1134,2.6719999999999997,2.369,8.59,320.72,47.31,118.27,2.98,0.2256,1600.0,1.38,0.1227482354242848
219212,15.96,0.0325,2.735,2.6460000000000004,8.02,46.49,188.66,134.75,2.82,0.2179,1650.0,1.64,0.1333561234509869
494730,17.0,0.3482,2.622,1.709,5.13,237.07,114.48,322.88,3.53,0.2322,1550.0,0.7120000000000001,0.14057549003012196
1116106,18.5,0.1313,2.7089999999999996,2.353,2.0,286.86,314.61,122.47,3.06,0.2211,1630.0,1.34,0.14721250959512608
688925,8.8,0.4401,47.74,26.728,16.64,212.03,219.58,345.53,68.74,0.0029879999999999998,120000.0,25.8,0.12396550784494245
743037,18.2,0.0992,2.34,2.108,5.69,22.16,146.35,127.26,2.57,0.2753,1310.0,1.12,0.14037610096673658
598471,17.52,0.1176,2.7560000000000002,2.432,13.1,22.25,340.21,336.92,3.08,0.2155,1670.0,1.43,0.1523909540174125
812907,14.47,0.0686,5.164,4.81,10.13,118.18,347.24,299.14,5.52,0.08399,4290.0,3.83,0.1396775110927361
761688,17.8,0.0996,2.7310000000000003,2.459,5.25,63.49,350.88,12.27,3.0,0.2183,1650.0,1.47,0.13508045996622803
684857,18.9,0.2048,2.366,1.881,2.18,120.31,197.03,7.99,2.85,0.2708,1330.0,0.8690000000000001,0.1421756568591041
241959,17.02,0.041,2.419,2.32,3.68,176.17,4.15,92.63,2.52,0.262,1370.0,1.32,0.13067184890380404
277020,17.63,0.1053,2.26,2.022,3.31,83.71,56.34,354.72,2.5,0.2901,1240.0,1.04,0.12776250435868122
808702,17.7,0.1889,2.174,1.7630000000000001,5.96,24.35,274.69,48.66,2.58,0.3075,1170.0,0.7609999999999999,0.14475185820079006
746327,19.2,0.276,2.247,1.6269999999999998,10.75,81.02,170.94,14.96,2.87,0.2926,1230.0,0.613,0.1401768665603926
591467,17.71,0.2102,2.458,1.9409999999999998,5.41,331.33,353.77,93.84,2.97,0.2558,1410.0,0.93,0.15060797777563548
691624,19.39,0.1505,2.194,1.864,3.11,53.25,288.96,178.15,2.52,0.3034,1190.0,0.8590000000000001,0.1442692690513566
189567,15.78,0.1038,2.5540000000000003,2.289,12.57,281.25,34.53,106.98,2.82,0.2415,1490.0,1.29,0.14009217502593396
175487,15.07,0.073,3.174,2.9419999999999997,15.69,359.02,77.6,199.64,3.41,0.1743,2070.0,2.01,0.14720498602499352
720943,19.3,0.19,2.309,1.87,1.91,341.57,89.06,291.45,2.75,0.281,1280.0,0.885,0.1179407946428065
912747,18.5,0.1466,2.456,2.096,1.81,136.57,71.32,242.27,2.82,0.256,1410.0,1.09,0.13650786358124206
180697,16.73,0.1791,2.741,2.25,3.74,158.44,144.8,241.75,3.23,0.2172,1660.0,1.24,0.14528874809381973
200282,16.17,0.0477,2.7239999999999998,2.594,7.47,90.07,214.47,86.92,2.85,0.2193,1640.0,1.58,0.150456244267297
940837,16.8,0.0573,3.432,3.235,9.75,353.28,293.63,62.5,3.63,0.155,2320.0,2.24,0.13257135679779197
730812,14.66,0.0493,5.211,4.954,7.31,18.47,33.9,345.17,5.47,0.08284,4350.0,3.97,0.12839687502058658
1078554,16.6,0.1592,3.181,2.674,27.44,139.68,312.41,216.25,3.69,0.1738,2070.0,1.75,0.1427958429046766
